DMSP 5D-3 F16 (USA 172) 
1 28054U 03048A   25260.25402420  .00000101  00000+0  76795-4 0  9997
2 28054  99.0128 276.9873 0006911 191.4867 223.8773 14.14376809130903
METEOSAT-9 (MSG-2)      
1 28912U 05049B   25260.09231139  .00000109  00000+0  00000+0 0  9991
2 28912   8.7360  56.7766 0001745 201.2991 177.1782  1.00275271  4277
DMSP 5D-3 F17 (USA 191) 
1 29522U 06050A   25260.21375456  .00000152  00000+0  10114-3 0  9996
2 29522  98.7421 267.3847 0011161 112.9846 247.2506 14.14861372973812
FENGYUN 3A              
1 32958U 08026A   25260.12700281  .00000082  00000+0  59502-4 0  9993
2 32958  98.6540 201.5471 0008387 187.5389 172.5663 14.19471880896666
GOES 14                 
1 35491U 09033A   25260.24628236 -.00000087  00000+0  00000+0 0  9999
2 35491   0.9703  86.5548 0003790 108.3822 141.8151  1.00269912  3859
DMSP 5D-3 F18 (USA 210) 
1 35951U 09057A   25260.23030110  .00000234  00000+0  14479-3 0  9995
2 35951  98.8710 237.1119 0010281 311.9541  48.0755 14.14695586820994
EWS-G2 (GOES 15)        
1 36411U 10008A   25260.16683137  .00000018  00000+0  00000+0 0  9991
2 36411   0.5839  85.4220 0005177 138.0494 254.2909  1.00271109 56904
COMS 1                  
1 36744U 10032A   25260.25143638 -.00000363  00000+0  00000+0 0  9998
2 36744   4.1241  78.8672 0000812 122.3616  13.8258  1.00268377 48359
FENGYUN 3B              
1 37214U 10059A   25260.32891196  .00000057  00000+0  53046-4 0  9999
2 37214  99.0047 299.6371 0021247 238.3676 215.2352 14.14754139768848
SUOMI NPP               
1 37849U 11061A   25260.27817518  .00000078  00000+0  57759-4 0  9995
2 37849  98.7621 198.4613 0002254  57.8108 302.3286 14.19516983719727
METEOSAT-10 (MSG-3)     
1 38552U 12035B   25260.22602494 -.00000023  00000+0  00000+0 0  9992
2 38552   4.0209  61.8987 0000418 199.9490 176.0900  1.00274626 48129
METOP-B                 
1 38771U 12049A   25260.20970026  .00000094  00000+0  62844-4 0  9993
2 38771  98.6449 311.6261 0002478  66.5706 293.5732 14.21461643674481
INSAT-3D                
1 39216U 13038B   25260.25169638 -.00000359  00000+0  00000+0 0  9997
2 39216   1.2161  86.1352 0002174 134.3707 356.1077  1.00270799 44347
FENGYUN 3C              
1 39260U 13052A   25260.30605182  .00000085  00000+0  64005-4 0  9992
2 39260  98.4656 242.2460 0015910  88.9795 271.3203 14.15653702619954
METEOR-M 2              
1 40069U 14037A   25260.30315520  .00000131  00000+0  79353-4 0  9993
2 40069  98.4793 241.2433 0006897 105.9169 254.2770 14.21332354580559
HIMAWARI-8              
1 40267U 14060A   25260.25394971 -.00000296  00000+0  00000+0 0  9991
2 40267   0.0217 208.0055 0000691 344.4223  36.0855  1.00270421 40018
FENGYUN 2G              
1 40367U 14090A   25260.03165534 -.00000320  00000+0  00000+0 0  9990
2 40367   4.9444  76.1284 0003576 178.0043 212.9134  1.00278805 39262
METEOSAT-11 (MSG-4)     
1 40732U 15034A   25260.22784495  .00000043  00000+0  00000+0 0  9990
2 40732   2.5142  72.2181 0000552 125.6679 249.7864  1.00273970  4486
ELEKTRO-L 2             
1 41105U 15074A   25260.29450988 -.00000134  00000+0  00000+0 0  9995
2 41105   6.0026  73.8734 0002615 172.8414 201.2954  1.00270993 35776
INSAT-3DR               
1 41752U 16054A   25260.15183741 -.00000097  00000+0  00000+0 0  9995
2 41752   0.0555  91.8058 0012489 171.7553 221.4373  1.00271831 33089
HIMAWARI-9              
1 41836U 16064A   25259.96847507  .00000000  00000+0  00000+0 0  9996
2 41836   0.0266 150.1220 0003918  95.5089 239.9488  1.00275294 32475
GOES 16                 
1 41866U 16071A   25259.63434557 -.00000110  00000+0  00000+0 0  9991
2 41866   0.1157  87.1512 0002401 128.3946 263.9807  1.00270826 32360
FENGYUN 4A              
1 41882U 16077A   25259.60977192 -.00000376  00000+0  00000+0 0  9993
2 41882   1.6225  83.1862 0007099 161.0564  94.7413  1.00268244 32186
CYGFM05                 
1 41884U 16078A   25260.11031804  .00014545  00000+0  31852-3 0  9990
2 41884  34.9591 251.0983 0007725 101.3978 258.7611 15.43201362486359
CYGFM04                 
1 41885U 16078B   25260.19851599  .00015491  00000+0  31483-3 0  9991
2 41885  34.9342 227.4626 0007159 134.0760 226.0551 15.45384696486522
CYGFM02                 
1 41886U 16078C   25260.21074105  .00043637  00000+0  84890-3 0  9998
2 41886  34.9430 226.8535 0008474 127.6073 232.5418 15.46483532486646
CYGFM01                 
1 41887U 16078D   25260.07077011  .00014527  00000+0  31342-3 0  9992
2 41887  34.9426 254.3220 0007165  87.8561 272.2980 15.43643652486287
CYGFM08                 
1 41888U 16078E   25260.05806725  .00015939  00000+0  33160-3 0  9991
2 41888  34.9452 238.2958 0009034 115.7074 244.4580 15.44682313486503
CYGFM07                 
1 41890U 16078G   25260.22166926  .00015997  00000+0  32559-3 0  9990
2 41890  34.9471 226.6883 0007599 140.5947 219.5327 15.45335311486544
CYGFM03                 
1 41891U 16078H   25260.24352274  .00015786  00000+0  32451-3 0  9993
2 41891  34.9421 228.3777 0006303 124.9003 235.2311 15.45056196486529
FENGYUN 3D              
1 43010U 17072A   25260.33153056  .00000081  00000+0  60070-4 0  9991
2 43010  98.9733 225.4089 0002520  98.1454 262.0007 14.19642470406273
NOAA 20 (JPSS-1)        
1 43013U 17073A   25260.22283072  .00000072  00000+0  54936-4 0  9999
2 43013  98.7450 197.5289 0001494  44.8396 315.2901 14.19560576405744
GOES 17                 
1 43226U 18022A   25260.20825819 -.00000203  00000+0  00000+0 0  9994
2 43226   0.2312  92.5636 0002649 151.4891  97.8158  1.00271672 27685
FENGYUN 2H              
1 43491U 18050A   25260.17003804 -.00000147  00000+0  00000+0 0  9994
2 43491   2.3236  82.3117 0002947 136.6877 277.7809  1.00269154 26704
METOP-C                 
1 43689U 18087A   25260.24419762  .00000090  00000+0  61030-4 0  9996
2 43689  98.7061 319.2792 0000794 166.0786 194.0414 14.21492037356055
GEO-KOMPSAT-2A          
1 43823U 18100A   25260.25143638 -.00000364  00000+0  00000+0 0  9999
2 43823   0.0355  15.8793 0001544 110.9279  88.4042  1.00271829 24890
METEOR-M2 2             
1 44387U 19038A   25260.25756144  .00000100  00000+0  63197-4 0  9996
2 44387  98.8855 238.9697 0002372  85.0053 275.1396 14.24235922322442
ARKTIKA-M 1             
1 47719U 21016A   25246.38975133 -.00000134  00000+0  00000+0 0  9993
2 47719  63.1607  97.4931 7149598 268.8202  16.1856  2.00602919 33032
FENGYUN 3E              
1 49008U 21062A   25260.27985220  .00000013  00000+0  26664-4 0  9993
2 49008  98.7476 261.8159 0002321 127.4399 232.6989 14.19861992217851
GOES 18                 
1 51850U 22021A   25259.69925919  .00000077  00000+0  00000+0 0  9991
2 51850   0.0369  35.1370 0000709 218.9079 216.5769  1.00270636  3857
NOAA 21 (JPSS-2)        
1 54234U 22150A   25260.25887513  .00000052  00000+0  45644-4 0  9995
2 54234  98.7313 197.7065 0000601 214.6125 145.5012 14.19559280147828
METEOSAT-12 (MTG-I1)    
1 54743U 22170C   25260.22593828 -.00000028  00000+0  00000+0 0  9998
2 54743   0.6585  24.9279 0001742 128.8604 283.6525  1.00268146 10241
TIANMU-1 03             
1 55973U 23039A   25260.28996284  .00011074  00000+0  30404-3 0  9995
2 55973  97.5092  60.7726 0003666  19.4813 340.6571 15.37417596138767
TIANMU-1 04             
1 55974U 23039B   25260.28635042  .00011365  00000+0  30921-3 0  9995
2 55974  97.5022  60.0007 0004329  12.1956 347.9393 15.37687685138761
TIANMU-1 05             
1 55975U 23039C   25260.26152044  .00011119  00000+0  30554-3 0  9999
2 55975  97.5069  60.4584 0003853  41.2411 318.9124 15.37386395138749
TIANMU-1 06             
1 55976U 23039D   25260.29198242  .00011086  00000+0  30100-3 0  9993
2 55976  97.5081  60.8870 0004097  34.1075 326.0432 15.37760122138762
METEOR-M2 3             
1 57166U 23091A   25260.33748765 -.00000012  00000+0  13620-4 0  9997
2 57166  98.6514 315.3230 0003026 233.0541 127.0361 14.24010312115685
TIANMU-1 07             
1 57399U 23101A   25260.30171906  .00005968  00000+0  23294-3 0  9992
2 57399  97.3022 312.0994 0004929  45.0324 315.1314 15.26268154119962
TIANMU-1 08             
1 57400U 23101B   25260.26800510  .00005469  00000+0  21364-3 0  9992
2 57400  97.3010 311.8791 0006924  42.6321 317.5454 15.26264246119959
TIANMU-1 09             
1 57401U 23101C   25260.32034090  .00005644  00000+0  22061-3 0  9992
2 57401  97.2967 311.4931 0006172  43.9117 316.2612 15.26235891119961
TIANMU-1 10             
1 57402U 23101D   25260.28839375  .00006171  00000+0  24096-3 0  9993
2 57402  97.3047 312.2208 0007935  40.4241 319.7586 15.26222046119951
FENGYUN 3F              
1 57490U 23111A   25260.26721352  .00000040  00000+0  39552-4 0  9997
2 57490  98.7188 329.9120 0001383 110.8910 249.2415 14.19859644110133
ARKTIKA-M 2             
1 58584U 23198A   25245.63669142  .00000141  00000+0  00000+0 0  9992
2 58584  63.2042 185.8992 6865009 268.5190  18.6674  2.00594607 12554
TIANMU-1 11             
1 58645U 23205A   25260.26549838  .00005229  00000+0  22462-3 0  9996
2 58645  97.3703 281.4510 0007909 240.6831 119.3616 15.23087901 95927
TIANMU-1 12             
1 58646U 23205B   25260.28630435  .00005354  00000+0  23087-3 0  9996
2 58646  97.3690 281.3056 0006510 219.1782 140.8985 15.22954357 95914
TIANMU-1 13             
1 58647U 23205C   25260.32022822  .00005035  00000+0  21725-3 0  9990
2 58647  97.3718 281.5066 0007418 197.6148 162.4833 15.22954747 95918
TIANMU-1 14             
1 58648U 23205D   25260.30292122  .00005038  00000+0  21740-3 0  9991
2 58648  97.3649 280.9185 0008071 203.7233 156.3633 15.22947649 95910
TIANMU-1 19             
1 58660U 23208A   25260.29406098  .00007244  00000+0  28838-3 0  9991
2 58660  97.4335  11.6828 0005492 189.4851 170.6284 15.25539065 95632
TIANMU-1 20             
1 58661U 23208B   25260.28273458  .00007587  00000+0  29113-3 0  9990
2 58661  97.4272  12.0344 0007620 203.8251 156.2636 15.26738242 95697
TIANMU-1 21             
1 58662U 23208C   25260.28221730  .00008986  00000+0  32269-3 0  9997
2 58662  97.4319  13.5818 0007270 199.8035 160.2924 15.28877502 95776
TIANMU-1 22             
1 58663U 23208D   25260.28405948  .00006759  00000+0  27011-3 0  9998
2 58663  97.4331  11.7617 0003569 209.7382 150.3653 15.25440817 95648
TIANMU-1 15             
1 58700U 24004A   25260.30486538  .00005639  00000+0  24283-3 0  9996
2 58700  97.4676  82.1652 0005571 226.2623 133.8152 15.22988234 94185
TIANMU-1 16             
1 58701U 24004B   25260.28667440  .00005406  00000+0  23261-3 0  9994
2 58701  97.4613  81.6141 0005812 233.0017 127.0689 15.23032080 94185
TIANMU-1 17             
1 58702U 24004C   25260.33237615  .00005764  00000+0  24834-3 0  9992
2 58702  97.4649  82.0405 0004794 220.7185 139.3694 15.22963972 94184
TIANMU-1 18             
1 58703U 24004D   25260.31748435  .00005800  00000+0  24912-3 0  9996
2 58703  97.4667  82.1967 0004511 217.2582 142.8343 15.23069560 94189
INSAT-3DS               
1 58990U 24033A   25260.14627936 -.00000176  00000+0  00000+0 0  9999
2 58990   0.0300 263.8770 0001427 292.4114 294.7870  1.00271601 44335
METEOR-M2 4             
1 59051U 24039A   25260.32280624  .00000024  00000+0  30153-4 0  9991
2 59051  98.6597 218.6532 0006017 235.3351 124.7260 14.22380362 80471
GOES 19                 
1 60133U 24119A   25259.06921811 -.00000267  00000+0  00000+0 0  9995
2 60133   0.0302  12.8458 0000828 250.5397  41.6033  1.00272174  4215
